NORAD_CAT_ID,OBJECT_NAME,OBJECT_TYPE,EPOCH,MEAN_MOTION,ECCENTRICITY,INCLINATION,RA_OF_ASC_NODE,ARG_OF_PERICENTER,MEAN_ANOMALY,BSTAR,MEAN_MOTION_DOT,MEAN_MOTION_DDOT,TLE_LINE0,TLE_LINE1,TLE_LINE2,SEMIMAJOR_AXIS,PERIOD,APOGEE,PERIGEE,DECAYED
53138.0,STARLINK-4141,PAYLOAD,2023-12-16 21:50:53,15.08848713,0.0001344,53.2159,222.5111,82.12,277.9945,3.431e-05,2.58e-06,0.0,0 STARLINK-4141,1 53138U 22083G   23350.91034703  .00000258  00000-0  34310-4 0  9995,2 53138  53.2159 222.5111 0001344  82.1200 277.9945 15.08848713 79202,6917.854,95.437,540.649,538.789,0.0
53138.0,STARLINK-4141,PAYLOAD,2023-12-16 23:26:16,15.0885013,0.0001427,53.2161,222.2108,86.0548,274.0608,8.5882e-05,1.079e-05,0.0,0 STARLINK-4141,1 53138U 22083G   23350.97658426  .00001079  00000-0  85882-4 0  9997,2 53138  53.2161 222.2108 0001427  86.0548 274.0608 15.08850130 79219,6917.849,95.437,540.702,538.727,0.0
53138.0,STARLINK-4141,PAYLOAD,2023-12-17 20:06:18,15.08840435,0.0001558,53.2164,218.345,74.0074,286.1089,0.00012793,1.749e-05,0.0,0 STARLINK-4141,1 53138U 22083G   23351.83770999  .00001749  00000-0  12793-3 0  9997,2 53138  53.2164 218.3450 0001558  74.0074 286.1089 15.08840435 79195,6917.879,95.438,540.822,538.666,0.0
53138.0,STARLINK-4141,PAYLOAD,2023-12-17 21:41:41,15.08844324,0.0001532,53.2154,218.0533,72.7574,287.3586,0.0001232,1.674e-05,0.0,0 STARLINK-4141,1 53138U 22083G   23351.90394867  .00001674  00000-0  12320-3 0  9994,2 53138  53.2154 218.0533 0001532  72.7574 287.3586 15.08844324 79359,6917.867,95.437,540.792,538.672,0.0
53138.0,STARLINK-4141,PAYLOAD,2023-12-18 19:57:05,15.08840222,0.0001471,53.217,213.8832,111.5768,248.5381,-3.7734e-05,-8.88e-06,0.0,0 STARLINK-4141,1 53138U 22083G   23352.83131240 -.00000888  00000-0 -37734-4 0  9996,2 53138  53.2170 213.8832 0001471 111.5768 248.5381 15.08840222 79345,6917.88,95.438,540.762,538.727,0.0
53138.0,STARLINK-4141,PAYLOAD,2023-12-18 21:32:29,15.08826514,0.0001525,53.2162,213.5837,76.7475,283.3687,-0.00013802,-2.483e-05,0.0,0 STARLINK-4141,1 53138U 22083G   23352.89756523 -.00002483  00000-0 -13802-3 0  9991,2 53138  53.2162 213.5837 0001525  76.7475 283.3687 15.08826514 79507,6917.922,95.438,540.842,538.732,0.0
53138.0,STARLINK-4141,PAYLOAD,2023-12-19 19:47:53,15.08836452,0.0001192,53.2151,209.4189,78.7028,281.4098,-7.4413e-05,-1.472e-05,0.0,0 STARLINK-4141,1 53138U 22083G   23353.82492258 -.00001472  00000-0 -74413-4 0  9990,2 53138  53.2151 209.4189 0001192  78.7028 281.4098 15.08836452 79490,6917.891,95.438,540.581,538.932,0.0
53138.0,STARLINK-4141,PAYLOAD,2023-12-20 19:38:40,15.08843824,0.0001337,53.2143,204.9557,65.5923,294.5209,0.00039345,5.98e-05,0.0,0 STARLINK-4141,1 53138U 22083G   23354.81851884  .00005980  00000-0  39345-3 0  9994,2 53138  53.2143 204.9557 0001337  65.5923 294.5209 15.08843824 79646,6917.869,95.437,540.659,538.809,0.0
53138.0,STARLINK-4141,PAYLOAD,2023-12-22 19:20:14,15.08844484,0.0001443,53.2155,196.0379,76.6697,283.4456,7.5947e-05,9.21e-06,0.0,0 STARLINK-4141,1 53138U 22083G   23356.80571820  .00000921  00000-0  75947-4 0  9993,2 53138  53.2155 196.0379 0001443  76.6697 283.4456 15.08844484 79948,6917.867,95.437,540.73,538.733,0.0
53138.0,STARLINK-4141,PAYLOAD,2023-12-22 20:55:37,15.0884499,0.0001472,53.2156,195.7405,73.8525,286.263,7.559e-05,9.15e-06,0.0,0 STARLINK-4141,1 53138U 22083G   23356.87195749  .00000915  00000-0  75590-4 0  9999,2 53138  53.2156 195.7405 0001472  73.8525 286.2630 15.08844990 80103,6917.865,95.437,540.748,538.712,0.0
53138.0,STARLINK-4141,PAYLOAD,2023-12-23 12:49:28,15.08841592,0.0001486,53.2155,192.7677,70.9701,289.1452,0.00010437,1.374e-05,0.0,0 STARLINK-4141,1 53138U 22083G   23357.53435857  .00001374  00000-0  10437-3 0  9998,2 53138  53.2155 192.7677 0001486  70.9701 289.1452 15.08841592 80209,6917.876,95.437,540.769,538.713,0.0
53138.0,STARLINK-4141,PAYLOAD,2023-12-23 19:11:01,15.08840135,0.0001459,53.2157,191.5771,73.8935,286.2218,7.9589e-05,9.79e-06,0.0,0 STARLINK-4141,1 53138U 22083G   23357.79931986  .00000979  00000-0  79589-4 0  9994,2 53138  53.2157 191.5771 0001459  73.8935 286.2218 15.08840135 80091,6917.88,95.438,540.754,538.736,0.0
53138.0,STARLINK-4141,PAYLOAD,2023-12-23 20:46:24,15.08841005,0.0001443,53.2157,191.2794,76.909,283.2063,8.3815e-05,1.046e-05,0.0,0 STARLINK-4141,1 53138U 22083G   23357.86555907  .00001046  00000-0  83815-4 0  9990,2 53138  53.2157 191.2794 0001443  76.9090 283.2063 15.08841005 80252,6917.877,95.437,540.741,538.744,0.0
53138.0,STARLINK-4141,PAYLOAD,2023-12-24 12:40:15,15.08843904,0.0001437,53.2156,188.3057,77.847,282.2683,7.1047e-05,8.43e-06,0.0,0 STARLINK-4141,1 53138U 22083G   23358.52795708  .00000843  00000-0  71047-4 0  9997,2 53138  53.2156 188.3057 0001437  77.8470 282.2683 15.08843904 80353,6917.868,95.437,540.728,538.739,0.0
53138.0,STARLINK-4141,PAYLOAD,2023-12-24 19:01:47,15.08846104,0.000142,53.2155,187.1164,78.527,281.5881,8.2329e-05,1.023e-05,0.0,0 STARLINK-4141,1 53138U 22083G   23358.79291421  .00001023  00000-0  82329-4 0  9995,2 53138  53.2155 187.1164 0001420  78.5270 281.5881 15.08846104 80397,6917.862,95.437,540.709,538.744,0.0
53138.0,STARLINK-4141,PAYLOAD,2023-12-25 12:31:02,15.088422,0.0001359,53.2153,183.8452,84.711,275.4037,8.4777e-05,1.062e-05,0.0,0 STARLINK-4141,1 53138U 22083G   23359.52155492  .00001062  00000-0  84777-4 0  9996,2 53138  53.2153 183.8452 0001359  84.7110 275.4037 15.08842200 80355,6917.874,95.437,540.679,538.799,0.0
53138.0,STARLINK-4141,PAYLOAD,2023-12-25 18:52:34,15.08842599,0.0001358,53.2154,182.6556,84.7384,275.3763,7.7796e-05,9.51e-06,0.0,0 STARLINK-4141,1 53138U 22083G   23359.78651425  .00000951  00000-0  77796-4 0  9990,2 53138  53.2154 182.6556 0001358  84.7384 275.3763 15.08842599 80547,6917.872,95.437,540.677,538.798,0.0
53138.0,STARLINK-4141,PAYLOAD,2023-12-26 12:21:49,15.08839825,0.000143,53.2152,179.3853,76.6685,283.4466,2.4832e-05,1.07e-06,0.0,0 STARLINK-4141,1 53138U 22083G   23360.51515777  .00000107  00000-0  24832-4 0  9998,2 53138  53.2152 179.3853 0001430  76.6685 283.4466 15.08839825 80653,6917.881,95.438,540.735,538.757,0.0
53138.0,STARLINK-4141,PAYLOAD,2023-12-26 18:43:22,15.08839984,0.0001346,53.2155,178.1951,88.587,271.5276,1.0985e-05,-1.13e-06,0.0,0 STARLINK-4141,1 53138U 22083G   23360.78011665 -.00000113  00000-0  10985-4 0  9996,2 53138  53.2155 178.1951 0001346  88.5870 271.5276 15.08839984 80547,6917.88,95.438,540.677,538.814,0.0
53138.0,STARLINK-4141,PAYLOAD,2023-12-27 21:44:55,15.0884198,0.0001451,53.2165,173.1396,104.9678,255.1474,5.6111e-05,6.05e-06,0.0,0 STARLINK-4141,1 53138U 22083G   23361.90619325  .00000605  00000-0  56111-4 0  9994,2 53138  53.2165 173.1396 0001451 104.9678 255.1474 15.08841980 80864,6917.874,95.437,540.743,538.736,0.0
53138.0,STARLINK-4141,PAYLOAD,2023-12-28 12:03:23,15.08835567,0.0001391,53.2163,170.4611,99.4777,260.6372,2.1665e-05,5.7e-07,0.0,0 STARLINK-4141,1 53138U 22083G   23362.50236001  .00000057  00000-0  21665-4 0  9994,2 53138  53.2163 170.4611 0001391  99.4777 260.6372 15.08835567 80809,6917.894,95.438,540.721,538.797,0.0
53138.0,STARLINK-4141,PAYLOAD,2023-12-28 18:24:56,15.08836406,0.0001362,53.2163,169.2716,98.2287,261.886,2.3699e-05,8.9e-07,0.0,0 STARLINK-4141,1 53138U 22083G   23362.76731985  .00000089  00000-0  23699-4 0  9997,2 53138  53.2163 169.2716 0001362  98.2287 261.8860 15.08836406 80990,6917.891,95.438,540.699,538.814,0.0
53138.0,STARLINK-4141,PAYLOAD,2023-12-29 10:18:48,15.08833756,0.0001404,53.2165,166.2979,97.798,262.3171,9.1884e-06,-1.42e-06,0.0,0 STARLINK-4141,1 53138U 22083G   23363.42972420 -.00000142  00000-0  91884-5 0  9995,2 53138  53.2165 166.2979 0001404  97.7980 262.3171 15.08833756 81099,6917.899,95.438,540.736,538.793,0.0
53138.0,STARLINK-4141,PAYLOAD,2023-12-29 16:40:20,15.08835827,0.0001399,53.2166,165.1092,98.2681,261.847,1.7793e-05,-5e-08,0.0,0 STARLINK-4141,1 53138U 22083G   23363.69468297 -.00000005  00000-0  17793-4 0  9990,2 53138  53.2166 165.1092 0001399  98.2681 261.8470 15.08835827 80985,6917.893,95.438,540.726,538.79,0.0
53138.0,STARLINK-4141,PAYLOAD,2023-12-30 14:55:44,15.08839089,0.0001333,53.2165,160.9468,100.0342,260.08,6.812e-05,7.96e-06,0.0,0 STARLINK-4141,1 53138U 22083G   23364.62204104  .00000796  00000-0  68120-4 0  9995,2 53138  53.2165 160.9468 0001333 100.0342 260.0800 15.08839089 81273,6917.883,95.438,540.67,538.826,0.0
53138.0,STARLINK-4141,PAYLOAD,2023-12-30 19:41:53,15.08842777,0.000131,53.2163,160.0549,96.8456,263.2685,9.7591e-05,1.266e-05,0.0,0 STARLINK-4141,1 53138U 22083G   23364.82075812  .00001266  00000-0  97591-4 0  9996,2 53138  53.2163 160.0549 0001310  96.8456 263.2685 15.08842777 81156,6917.872,95.437,540.643,538.831,0.0
53138.0,STARLINK-4141,PAYLOAD,2023-12-31 10:00:22,15.08836418,0.0001422,53.2171,157.379,97.3067,262.8087,4.5894e-05,4.42e-06,0.0,0 STARLINK-4141,1 53138U 22083G   23365.41692466  .00000442  00000-0  45894-4 0  9996,2 53138  53.2171 157.3790 0001422  97.3067 262.8087 15.08836418 81246,6917.891,95.438,540.74,538.773,0.0
53138.0,STARLINK-4141,PAYLOAD,2023-12-31 17:57:18,15.08836737,0.0001329,53.2166,155.8918,93.0887,267.0257,4.0272e-05,3.53e-06,0.0,0 STARLINK-4141,1 53138U 22083G   23365.74812523  .00000353  00000-0  40272-4 0  9996,2 53138  53.2166 155.8918 0001329  93.0887 267.0257 15.08836737 81446,6917.89,95.438,540.675,538.836,0.0
53138.0,STARLINK-4141,PAYLOAD,2024-01-01 14:37:18,15.0884412,0.0001302,53.2166,152.0263,92.9316,267.1826,1.621e-05,-3e-07,0.0,0 STARLINK-4141,1 53138U 22083G   24001.60924115 -.00000030  00000-0  16210-4 0  9998,2 53138  53.2166 152.0263 0001302  92.9316 267.1826 15.08844120 81576,6917.868,95.437,540.634,538.832,0.0
53138.0,STARLINK-4141,PAYLOAD,2024-01-01 19:23:27,15.0884795,0.0001326,53.2166,151.1339,91.5434,268.571,4.9312e-05,4.97e-06,0.0,0 STARLINK-4141,1 53138U 22083G   24001.80795709  .00000497  00000-0  49312-4 0  9990,2 53138  53.2166 151.1339 0001326  91.5434 268.5710 15.08847950 81450,6917.856,95.437,540.638,538.804,0.0
